start=new Date('2022-01-23T00:00:00.000Z').valueOf();
sats=[{"RA_OF_ASC_NODE":"77.1641","MEAN_MOTION_DOT":"-0.00003046","COUNTRY_CODE":"US","MEAN_MOTION":"15.40519404","REV_AT_EPOCH":"911","CENTER_NAME":"EARTH","CLASSIFICATION_TYPE":"U","APOAPSIS":"446.765","OBJECT_ID":"2021-115AY","PERIOD":"93.475","OBJECT_NAME":"STARLINK-3191","EPHEMERIS_TYPE":"0","SITE":"AFETR","ELEMENT_SET_NO":"999","FILE":"3280298","ECCENTRICITY":"0.00032070","LAUNCH_DATE":"2021-12-02","EPOCH":"2022-01-22T22:00:00.999936","INCLINATION":"53.2162","OBJECT_TYPE":"PAYLOAD","MEAN_ANOMALY":"156.7835","NORAD_CAT_ID":"49770","REF_FRAME":"TEME","TLE_LINE2":"2 49770  53.2162  77.1641 0003207  11.6979 156.7835 15.40519404  9118","RCS_SIZE":"LARGE","PERIAPSIS":"442.389","MEAN_ELEMENT_THEORY":"SGP4","TLE_LINE1":"1 49770U 21115AY  22022.91667824 -.00003046  00000-0 -64112-4 0  9991","BSTAR":"-0.00006411200000","DECAY_DATE":null,"MEAN_MOTION_DDOT":"0.0000000000000","GP_ID":"194403507","TIME_SYSTEM":"UTC","ARG_OF_PERICENTER":"11.6979","SEMIMAJOR_AXIS":"6822.712"},{"MEAN_MOTION":"15.63234686","COUNTRY_CODE":"US","RA_OF_ASC_NODE":"190.7188","MEAN_MOTION_DOT":"-0.00653733","CENTER_NAME":"EARTH","APOAPSIS":"379.142","OBJECT_ID":"2021-125D","CLASSIFICATION_TYPE":"U","REV_AT_EPOCH":"533","OBJECT_NAME":"STARLINK-3297","PERIOD":"92.117","ELEMENT_SET_NO":"999","SITE":"AFWTR","FILE":"3280301","EPHEMERIS_TYPE":"0","ECCENTRICITY":"0.00012130","TLE_LINE2":"2 50159  53.2173 190.7188 0001213  55.2532  14.0497 15.63234686  5336","NORAD_CAT_ID":"50159","REF_FRAME":"TEME","RCS_SIZE":"LARGE","LAUNCH_DATE":"2021-12-18","OBJECT_TYPE":"PAYLOAD","MEAN_ANOMALY":"14.0497","EPOCH":"2022-01-22T22:00:00.999936","INCLINATION":"53.2173","TLE_LINE1":"1 50159U 21125D   22022.91667824 -.00653733  00000-0 -75823-2 0  9998","MEAN_MOTION_DDOT":"0.0000000000000","DECAY_DATE":null,"BSTAR":"-0.00758230000000","MEAN_ELEMENT_THEORY":"SGP4","PERIAPSIS":"377.503","SEMIMAJOR_AXIS":"6756.458","ARG_OF_PERICENTER":"55.2532","GP_ID":"194403556","TIME_SYSTEM":"UTC"},{"OBJECT_NAME":"STARLINK-3304","PERIOD":"92.137","SITE":"AFWTR","ELEMENT_SET_NO":"999","FILE":"3280300","EPHEMERIS_TYPE":"0","COUNTRY_CODE":"US","MEAN_MOTION":"15.62889597","RA_OF_ASC_NODE":"190.7229","MEAN_MOTION_DOT":"-0.00654184","CENTER_NAME":"EARTH","CLASSIFICATION_TYPE":"U","APOAPSIS":"380.123","OBJECT_ID":"2021-125F","REV_AT_EPOCH":"839","TLE_LINE1":"1 50161U 21125F   22022.91667824 -.00654184  00000-0 -76920-2 0  9991","BSTAR":"-0.00769200000000","DECAY_DATE":null,"MEAN_MOTION_DDOT":"0.0000000000000","MEAN_ELEMENT_THEORY":"SGP4","PERIAPSIS":"378.512","ARG_OF_PERICENTER":"56.1893","SEMIMAJOR_AXIS":"6757.452","GP_ID":"194403533","TIME_SYSTEM":"UTC","ECCENTRICITY":"0.00011920","REF_FRAME":"TEME","NORAD_CAT_ID":"50161","TLE_LINE2":"2 50161  53.2173 190.7229 0001192  56.1893   1.2911 15.62889597  8395","RCS_SIZE":"LARGE","LAUNCH_DATE":"2021-12-18","EPOCH":"2022-01-22T22:00:00.999936","INCLINATION":"53.2173","MEAN_ANOMALY":"1.2911","OBJECT_TYPE":"PAYLOAD"},{"ECCENTRICITY":"0.00012110","EPOCH":"2022-01-22T22:00:00.999936","INCLINATION":"53.2181","OBJECT_TYPE":"PAYLOAD","MEAN_ANOMALY":"146.7315","LAUNCH_DATE":"2021-12-18","RCS_SIZE":"LARGE","NORAD_CAT_ID":"50164","REF_FRAME":"TEME","TLE_LINE2":"2 50164  53.2181 190.4686 0001211  52.5851 146.7315 15.73255171  8409","MEAN_ELEMENT_THEORY":"SGP4","PERIAPSIS":"348.788","BSTAR":"0.00018275000000","DECAY_DATE":null,"MEAN_MOTION_DDOT":"0.0000000000000","TLE_LINE1":"1 50164U 21125J   22022.91667824  .00025165  00000-0  18275-3 0  9993","TIME_SYSTEM":"UTC","GP_ID":"194403673","ARG_OF_PERICENTER":"52.5851","SEMIMAJOR_AXIS":"6727.738","MEAN_MOTION_DOT":"0.00025165","RA_OF_ASC_NODE":"190.4686","COUNTRY_CODE":"US","MEAN_MOTION":"15.73255171","REV_AT_EPOCH":"840","CLASSIFICATION_TYPE":"U","APOAPSIS":"350.418","OBJECT_ID":"2021-125J","CENTER_NAME":"EARTH","PERIOD":"91.530","OBJECT_NAME":"STARLINK-3307","EPHEMERIS_TYPE":"0","FILE":"3280298","SITE":"AFWTR","ELEMENT_SET_NO":"999"},{"COUNTRY_CODE":"US","MEAN_MOTION":"15.73239912","RA_OF_ASC_NODE":"190.4614","MEAN_MOTION_DOT":"0.00014044","CENTER_NAME":"EARTH","CLASSIFICATION_TYPE":"U","OBJECT_ID":"2021-125L","APOAPSIS":"350.464","REV_AT_EPOCH":"579","OBJECT_NAME":"STARLINK-3305","PERIOD":"91.531","SITE":"AFWTR","ELEMENT_SET_NO":"999","FILE":"3280347","EPHEMERIS_TYPE":"0","ECCENTRICITY":"0.00012160","NORAD_CAT_ID":"50166","REF_FRAME":"TEME","TLE_LINE2":"2 50166  53.2176 190.4614 0001216  63.1619 139.0448 15.73239912  5797","RCS_SIZE":"LARGE","LAUNCH_DATE":"2021-12-18","INCLINATION":"53.2176","EPOCH":"2022-01-22T22:00:00.999936","OBJECT_TYPE":"PAYLOAD","MEAN_ANOMALY":"139.0448","TLE_LINE1":"1 50166U 21125L   22022.91667824  .00014044  00000-0  10414-3 0  9996","BSTAR":"0.00010414000000","DECAY_DATE":null,"MEAN_MOTION_DDOT":"0.0000000000000","PERIAPSIS":"348.828","MEAN_ELEMENT_THEORY":"SGP4","ARG_OF_PERICENTER":"63.1619","SEMIMAJOR_AXIS":"6727.781","GP_ID":"194404608","TIME_SYSTEM":"UTC"},{"APOAPSIS":"378.199","OBJECT_ID":"2021-125M","CLASSIFICATION_TYPE":"U","CENTER_NAME":"EARTH","REV_AT_EPOCH":"839","MEAN_MOTION":"15.63579720","COUNTRY_CODE":"US","MEAN_MOTION_DOT":"-0.00653155","RA_OF_ASC_NODE":"190.7139","FILE":"3280300","ELEMENT_SET_NO":"999","SITE":"AFWTR","EPHEMERIS_TYPE":"0","OBJECT_NAME":"STARLINK-3271","PERIOD":"92.096","RCS_SIZE":"LARGE","TLE_LINE2":"2 50167  53.2173 190.7139 0001288  51.0005  29.8185 15.63579720  8390","NORAD_CAT_ID":"50167","REF_FRAME":"TEME","MEAN_ANOMALY":"29.8185","OBJECT_TYPE":"PAYLOAD","EPOCH":"2022-01-22T22:00:00.999936","INCLINATION":"53.2173","LAUNCH_DATE":"2021-12-18","ECCENTRICITY":"0.00012880","SEMIMAJOR_AXIS":"6755.464","ARG_OF_PERICENTER":"51.0005","TIME_SYSTEM":"UTC","GP_ID":"194403692","DECAY_DATE":null,"MEAN_MOTION_DDOT":"0.0000000000000","BSTAR":"-0.00747220000000","TLE_LINE1":"1 50167U 21125M   22022.91667824 -.00653155  00000-0 -74722-2 0  9992","PERIAPSIS":"376.458","MEAN_ELEMENT_THEORY":"SGP4"},{"RA_OF_ASC_NODE":"190.4456","MEAN_MOTION_DOT":"0.00061218","MEAN_MOTION":"15.73212603","COUNTRY_CODE":"US","REV_AT_EPOCH":"579","CENTER_NAME":"EARTH","OBJECT_ID":"2021-125P","APOAPSIS":"350.582","CLASSIFICATION_TYPE":"U","PERIOD":"91.532","OBJECT_NAME":"STARLINK-3301","EPHEMERIS_TYPE":"0","ELEMENT_SET_NO":"999","SITE":"AFWTR","FILE":"3280300","ECCENTRICITY":"0.00012750","LAUNCH_DATE":"2021-12-18","OBJECT_TYPE":"PAYLOAD","MEAN_ANOMALY":"168.5128","EPOCH":"2022-01-22T22:00:00.999936","INCLINATION":"53.2177","TLE_LINE2":"2 50169  53.2177 190.4456 0001275  42.0618 168.5128 15.73212603  5795","REF_FRAME":"TEME","NORAD_CAT_ID":"50169","RCS_SIZE":"LARGE","PERIAPSIS":"348.866","MEAN_ELEMENT_THEORY":"SGP4","TLE_LINE1":"1 50169U 21125P   22022.91667824  .00061218  00000-0  43719-3 0  9998","MEAN_MOTION_DDOT":"0.0000000000000","DECAY_DATE":null,"BSTAR":"0.00043719000000","GP_ID":"194403543","TIME_SYSTEM":"UTC","SEMIMAJOR_AXIS":"6727.859","ARG_OF_PERICENTER":"42.0618"},{"SEMIMAJOR_AXIS":"6727.935","ARG_OF_PERICENTER":"44.3208","GP_ID":"194403687","TIME_SYSTEM":"UTC","TLE_LINE1":"1 50177U 21125X   22022.91667824  .00036400  00000-0  26280-3 0  9996","MEAN_MOTION_DDOT":"0.0000000000000","DECAY_DATE":null,"BSTAR":"0.00026280000000","MEAN_ELEMENT_THEORY":"SGP4","PERIAPSIS":"348.881","TLE_LINE2":"2 50177  53.2179 190.4548 0001366  44.3208 161.6796 15.73185909  8403","NORAD_CAT_ID":"50177","REF_FRAME":"TEME","RCS_SIZE":"LARGE","LAUNCH_DATE":"2021-12-18","MEAN_ANOMALY":"161.6796","OBJECT_TYPE":"PAYLOAD","EPOCH":"2022-01-22T22:00:00.999936","INCLINATION":"53.2179","ECCENTRICITY":"0.00013660","ELEMENT_SET_NO":"999","SITE":"AFWTR","FILE":"3280300","EPHEMERIS_TYPE":"0","OBJECT_NAME":"STARLINK-3282","PERIOD":"91.534","CENTER_NAME":"EARTH","APOAPSIS":"350.719","OBJECT_ID":"2021-125X","CLASSIFICATION_TYPE":"U","REV_AT_EPOCH":"840","MEAN_MOTION":"15.73185909","COUNTRY_CODE":"US","RA_OF_ASC_NODE":"190.4548","MEAN_MOTION_DOT":"0.00036400"},{"EPHEMERIS_TYPE":"0","FILE":"3280300","ELEMENT_SET_NO":"999","SITE":"AFWTR","PERIOD":"91.532","OBJECT_NAME":"STARLINK-3265","REV_AT_EPOCH":"579","OBJECT_ID":"2021-125AA","APOAPSIS":"350.613","CLASSIFICATION_TYPE":"U","CENTER_NAME":"EARTH","MEAN_MOTION_DOT":"0.00025164","RA_OF_ASC_NODE":"190.4405","MEAN_MOTION":"15.73220785","COUNTRY_CODE":"US","TIME_SYSTEM":"UTC","GP_ID":"194403541","SEMIMAJOR_AXIS":"6727.836","ARG_OF_PERICENTER":"53.7891","MEAN_ELEMENT_THEORY":"SGP4","PERIAPSIS":"348.789","MEAN_MOTION_DDOT":"0.0000000000000","DECAY_DATE":null,"BSTAR":"0.00018301000000","TLE_LINE1":"1 50180U 21125AA  22022.91667824  .00025164  00000-0  18301-3 0  9990","OBJECT_TYPE":"PAYLOAD","MEAN_ANOMALY":"157.8175","INCLINATION":"53.2168","EPOCH":"2022-01-22T22:00:00.999936","LAUNCH_DATE":"2021-12-18","RCS_SIZE":"LARGE","TLE_LINE2":"2 50180  53.2168 190.4405 0001355  53.7891 157.8175 15.73220785  5796","NORAD_CAT_ID":"50180","REF_FRAME":"TEME","ECCENTRICITY":"0.00013550"},{"EPHEMERIS_TYPE":"0","SITE":"AFWTR","ELEMENT_SET_NO":"999","FILE":"3280300","PERIOD":"92.110","OBJECT_NAME":"STARLINK-3274","REV_AT_EPOCH":"839","CENTER_NAME":"EARTH","CLASSIFICATION_TYPE":"U","OBJECT_ID":"2021-125AG","APOAPSIS":"378.787","RA_OF_ASC_NODE":"190.6814","MEAN_MOTION_DOT":"-0.00652584","COUNTRY_CODE":"US","MEAN_MOTION":"15.63345603","GP_ID":"194403700","TIME_SYSTEM":"UTC","ARG_OF_PERICENTER":"63.8837","SEMIMAJOR_AXIS":"6756.138","MEAN_ELEMENT_THEORY":"SGP4","PERIAPSIS":"377.219","TLE_LINE1":"1 50186U 21125AG  22022.91667824 -.00652584  00000-0 -75349-2 0  9994","BSTAR":"-0.00753490000000","DECAY_DATE":null,"MEAN_MOTION_DDOT":"0.0000000000000","LAUNCH_DATE":"2021-12-18","EPOCH":"2022-01-22T22:00:00.999936","INCLINATION":"53.2173","MEAN_ANOMALY":"29.8072","OBJECT_TYPE":"PAYLOAD","NORAD_CAT_ID":"50186","REF_FRAME":"TEME","TLE_LINE2":"2 50186  53.2173 190.6814 0001160  63.8837  29.8072 15.63345603  8399","RCS_SIZE":"LARGE","ECCENTRICITY":"0.00011600"}];
